{
    "links": {
        "self": "http://www.neowsapp.com/rest/v1/neo/3741555?api_key=iIulBulltgU6a56xZRHN4H3l9WmuAYTsLGpBGhQ2"
    },
    "id": "3741555",
    "neo_reference_id": "3741555",
    "name": "(2016 CF29)",
    "designation": "2016 CF29",
    "nasa_jpl_url": "http://ssd.jpl.nasa.gov/sbdb.cgi?sstr=3741555",
    "absolute_magnitude_h": 24.9,
    "estimated_diameter": {
        "kilometers": {
            "estimated_diameter_min": 0.0278326768,
            "estimated_diameter_max": 0.0622357573
        },
        "meters": {
            "estimated_diameter_min": 27.8326768072,
            "estimated_diameter_max": 62.2357573367
        },
        "miles": {
            "estimated_diameter_min": 0.0172944182,
            "estimated_diameter_max": 0.0386714948
        },
        "feet": {
            "estimated_diameter_min": 91.3145593761,
            "estimated_diameter_max": 204.1855621004
        }
    },
    "is_potentially_hazardous_asteroid": false,
    "close_approach_data": [
        {
            "close_approach_date": "2016-02-12",
            "close_approach_date_full": "2016-Feb-12 13:14",
            "epoch_date_close_approach": 1455282840000,
            "relative_velocity": {
                "kilometers_per_second": "16.5127659361",
                "kilometers_per_hour": "59445.9573697973",
                "miles_per_hour": "36937.406122361"
            },
            "miss_distance": {
                "astronomical": "0.0311080177",
                "lunar": "12.1010188853",
                "kilometers": "4653693.187842299",
                "miles": "2891670.8583657662"
            },
            "orbiting_body": "Earth"
        }
    ],
    "orbital_data": {
        "orbit_id": "8",
        "orbit_determination_date": "2017-04-06 08:28:44",
        "first_observation_date": "2016-02-03",
        "last_observation_date": "2016-02-10",
        "data_arc_in_days": 7,
        "observations_used": 76,
        "orbit_uncertainty": "8",
        "minimum_orbit_intersection": ".0308431",
        "jupiter_tisserand_invariant": "3.414",
        "epoch_osculation": "2457424.5",
        "eccentricity": ".6407393552547819",
        "semi_major_axis": "2.137262114592984",
        "inclination": "5.529945915639447",
        "ascending_node_longitude": "304.8584592669761",
        "orbital_period": "1141.26134574404",
        "perihelion_distance": ".7678341652782038",
        "perihelion_argument": "263.7289838271828",
        "aphelion_distance": "3.506690063907765",
        "perihelion_time": "2457472.795020756351",
        "mean_anomaly": "344.7657966011707",
        "mean_motion": ".3154404565987468",
        "equinox": "J2000",
        "orbit_class": {
            "orbit_class_type": "APO",
            "orbit_class_description": "Near-Earth asteroid orbits which cross the Earth’s orbit similar to that of 1862 Apollo",
            "orbit_class_range": "a (semi-major axis) > 1.0 AU; q (perihelion) < 1.017 AU"
        }
    },
    "is_sentry_object": false
}